{
    "links": {
        "self": "http://www.neowsapp.com/rest/v1/neo/3799639?api_key=iIulBulltgU6a56xZRHN4H3l9WmuAYTsLGpBGhQ2"
    },
    "id": "3799639",
    "neo_reference_id": "3799639",
    "name": "(2018 CU13)",
    "designation": "2018 CU13",
    "nasa_jpl_url": "http://ssd.jpl.nasa.gov/sbdb.cgi?sstr=3799639",
    "absolute_magnitude_h": 26.2,
    "estimated_diameter": {
        "kilometers": {
            "estimated_diameter_min": 0.0152951935,
            "estimated_diameter_max": 0.0342010925
        },
        "meters": {
            "estimated_diameter_min": 15.2951935344,
            "estimated_diameter_max": 34.201092472
        },
        "miles": {
            "estimated_diameter_min": 0.0095039897,
            "estimated_diameter_max": 0.021251567
        },
        "feet": {
            "estimated_diameter_min": 50.1810827555,
            "estimated_diameter_max": 112.2083122258
        }
    },
    "is_potentially_hazardous_asteroid": false,
    "close_approach_data": [
        {
            "close_approach_date": "2018-02-21",
            "close_approach_date_full": "2018-Feb-21 14:39",
            "epoch_date_close_approach": 1519223940000,
            "relative_velocity": {
                "kilometers_per_second": "10.7337406622",
                "kilometers_per_hour": "38641.4663838552",
                "miles_per_hour": "24010.3044872349"
            },
            "miss_distance": {
                "astronomical": "0.0302096047",
                "lunar": "11.7515362283",
                "kilometers": "4519292.516661989",
                "miles": "2808158.1538298882"
            },
            "orbiting_body": "Earth"
        }
    ],
    "orbital_data": {
        "orbit_id": "2",
        "orbit_determination_date": "2018-02-19 06:21:51",
        "first_observation_date": "2018-02-10",
        "last_observation_date": "2018-02-18",
        "data_arc_in_days": 8,
        "observations_used": 25,
        "orbit_uncertainty": "8",
        "minimum_orbit_intersection": ".0128965",
        "jupiter_tisserand_invariant": "3.195",
        "epoch_osculation": "2458161.5",
        "eccentricity": ".6145198727237794",
        "semi_major_axis": "2.466918506943571",
        "inclination": "1.132822075763787",
        "ascending_node_longitude": "76.18299025385117",
        "orbital_period": "1415.241748739862",
        "perihelion_distance": ".9509480600366719",
        "perihelion_argument": "107.9561374756108",
        "aphelion_distance": "3.98288895385047",
        "perihelion_time": "2458194.467289707547",
        "mean_anomaly": "351.6139950610668",
        "mean_motion": ".2543735021388011",
        "equinox": "J2000",
        "orbit_class": {
            "orbit_class_type": "APO",
            "orbit_class_description": "Near-Earth asteroid orbits which cross the Earth’s orbit similar to that of 1862 Apollo",
            "orbit_class_range": "a (semi-major axis) > 1.0 AU; q (perihelion) < 1.017 AU"
        }
    },
    "is_sentry_object": false
}